{"fetched_at":"2026-03-30T09:12:31Z","count":15922,"tles":[{"name":"STARLINK-34720","line1":"1 66449U 25259AD  26087.62340638  .00031555  00000+0  11506-2 0  9990","line2":"2 66449  42.9990 167.6963 0001393 251.8248 108.2452 15.27599478 22270","category":"Starlink"}]}