{
  "norad_id": 66449,
  "name": "STARLINK-34720",
  "history": [
    {
      "epoch": "2026-03-28T14:57:42.311232Z",
      "apogee_km": 483.946527618923,
      "perigee_km": 482.0350174214982,
      "latitude_deg": 1.1601690957002787e-06,
      "longitude_deg": 117.2288112520421,
      "height_km": 483.0653776963239,
      "semi_major_axis_km": 6861.12777252021,
      "eccentricity": 0.0001393,
      "inclination_deg": 42.999,
      "raan_deg": 167.6963,
      "arg_perigee_deg": 251.8248,
      "mean_anomaly_deg": 108.2452,
      "mean_motion_rev_day": 15.27599478
    }
  ]
}